NORAD_CAT_ID,OBJECT_NAME,OBJECT_TYPE,EPOCH,MEAN_MOTION,ECCENTRICITY,INCLINATION,RA_OF_ASC_NODE,ARG_OF_PERICENTER,MEAN_ANOMALY,BSTAR,MEAN_MOTION_DOT,MEAN_MOTION_DDOT,TLE_LINE0,TLE_LINE1,TLE_LINE2,SEMIMAJOR_AXIS,PERIOD,APOGEE,PERIGEE,DECAYED
52554.0,STARLINK-3770,PAYLOAD,2023-07-26 17:41:57,15.08854024,0.0001436,53.2181,110.0458,89.8288,270.2869,-4.073e-05,-9.36e-06,0.0,0 STARLINK-3770,1 52554U 22051X   23207.73746811 -.00000936  00000-0 -40730-4 0  9990,2 52554  53.2181 110.0458 0001436  89.8288 270.2869 15.08854024 66901,6917.838,95.437,540.696,538.709,0.0
52554.0,STARLINK-3770,PAYLOAD,2023-07-27 00:03:29,15.08851044,0.0001352,53.2178,108.8564,82.9199,277.1947,6.1812e-05,6.96e-06,0.0,0 STARLINK-3770,1 52554U 22051X   23208.00242517  .00000696  00000-0  61812-4 0  9990,2 52554  53.2178 108.8564 0001352  82.9199 277.1947 15.08851044 67017,6917.847,95.437,540.647,538.776,0.0
52554.0,STARLINK-3770,PAYLOAD,2023-07-28 03:05:03,15.08834645,0.0001311,53.2172,103.8,98.9828,261.1313,-3.6454e-05,-8.68e-06,0.0,0 STARLINK-3770,1 52554U 22051X   23209.12851827 -.00000868  00000-0 -36454-4 0  9991,2 52554  53.2172 103.8000 0001311  98.9828 261.1313 15.08834645 67188,6917.897,95.438,540.669,538.855,0.0
52554.0,STARLINK-3770,PAYLOAD,2023-07-28 23:45:04,15.08842248,0.0001159,53.217,99.9349,95.1795,264.9329,4.6258e-05,4.48e-06,0.0,0 STARLINK-3770,1 52554U 22051X   23209.98963442  .00000448  00000-0  46258-4 0  9997,2 52554  53.2170  99.9349 0001159  95.1795 264.9329 15.08842248 67310,6917.874,95.437,540.54,538.937,0.0
52554.0,STARLINK-3770,PAYLOAD,2023-07-29 17:14:19,15.08834521,0.0001248,53.217,96.6648,103.5413,256.5718,0.00019934,2.886e-05,0.0,0 STARLINK-3770,1 52554U 22051X   23210.71827740  .00002886  00000-0  19934-3 0  9998,2 52554  53.2170  96.6648 0001248 103.5413 256.5718 15.08834521 67422,6917.897,95.438,540.625,538.899,0.0
52554.0,STARLINK-3770,PAYLOAD,2023-07-30 02:46:37,15.08845718,0.0001215,53.2162,94.8797,95.5157,264.5974,0.00027076,4.025e-05,0.0,0 STARLINK-3770,1 52554U 22051X   23211.11571447  .00004025  00000-0  27076-3 0  9996,2 52554  53.2162  94.8797 0001215  95.5157 264.5974 15.08845718 67486,6917.863,95.437,540.568,538.887,0.0
52554.0,STARLINK-3770,PAYLOAD,2023-07-31 01:02:01,15.08845108,0.0001179,53.2169,90.7155,98.48,261.6326,8.891e-05,1.128e-05,0.0,0 STARLINK-3770,1 52554U 22051X   23212.04307666  .00001128  00000-0  88910-4 0  9995,2 52554  53.2169  90.7155 0001179  98.4800 261.6326 15.08845108 67620,6917.865,95.437,540.545,538.914,0.0
52554.0,STARLINK-3770,PAYLOAD,2023-07-31 08:58:57,15.08839884,0.0001088,53.2162,89.227,86.0151,274.0965,3.8736e-05,3.29e-06,0.0,0 STARLINK-3770,1 52554U 22051X   23212.37428091  .00000329  00000-0  38736-4 0  9990,2 52554  53.2162  89.2270 0001088  86.0151 274.0965 15.08839884 67671,6917.881,95.438,540.498,538.993,0.0
52554.0,STARLINK-3770,PAYLOAD,2023-07-31 23:17:25,15.08847904,0.0001238,53.2171,86.5496,87.5852,272.5282,5.63e-05,6.08e-06,0.0,0 STARLINK-3770,1 52554U 22051X   23212.97043572  .00000608  00000-0  56300-4 0  9990,2 52554  53.2171  86.5496 0001238  87.5852 272.5282 15.08847904 67769,6917.856,95.437,540.578,538.865,0.0
52554.0,STARLINK-3770,PAYLOAD,2023-08-01 18:22:03,15.08841137,0.0001179,53.2166,82.983,97.8492,262.2634,4.6413e-05,4.51e-06,0.0,0 STARLINK-3770,1 52554U 22051X   23213.76532074  .00000451  00000-0  46413-4 0  9998,2 52554  53.2166  82.9830 0001179  97.8492 262.2634 15.08841137 67885,6917.877,95.437,540.558,538.926,0.0
52554.0,STARLINK-3770,PAYLOAD,2023-08-02 22:58:59,15.08853381,0.0001236,53.216,77.6302,93.171,266.9423,0.00021948,3.208e-05,0.0,0 STARLINK-3770,1 52554U 22051X   23214.95763285  .00003208  00000-0  21948-3 0  9998,2 52554  53.2160  77.6302 0001236  93.1710 266.9423 15.08853381 68062,6917.839,95.437,540.56,538.849,0.0
52554.0,STARLINK-3770,PAYLOAD,2023-08-03 18:03:37,15.08837876,0.000124,53.2161,74.0612,90.2359,269.8775,2.7853e-05,1.55e-06,0.0,0 STARLINK-3770,1 52554U 22051X   23215.75252216  .00000155  00000-0  27853-4 0  9994,2 52554  53.2161  74.0612 0001240  90.2359 269.8775 15.08837876 68186,6917.887,95.438,540.61,538.894,0.0
52554.0,STARLINK-3770,PAYLOAD,2023-08-04 21:05:10,15.08848735,0.0001132,53.2158,69.0062,88.9762,271.136,0.00011367,1.522e-05,0.0,0 STARLINK-3770,1 52554U 22051X   23216.87859850  .00001522  00000-0  11367-3 0  9996,2 52554  53.2158  69.0062 0001132  88.9762 271.1360 15.08848735 68358,6917.854,95.437,540.502,538.936,0.0
52554.0,STARLINK-3770,PAYLOAD,2023-08-05 09:48:16,15.08844152,0.0001143,53.2158,66.6273,91.2079,268.9044,0.00023687,3.484e-05,0.0,0 STARLINK-3770,1 52554U 22051X   23217.40852060  .00003484  00000-0  23687-3 0  9999,2 52554  53.2158  66.6273 0001143  91.2079 268.9044 15.08844152 68436,6917.868,95.437,540.523,538.942,0.0
52554.0,STARLINK-3770,PAYLOAD,2023-08-06 00:06:43,15.0886521,0.0001099,53.2158,63.9515,86.8729,273.2388,0.00053145,8.186e-05,0.0,0 STARLINK-3770,1 52554U 22051X   23218.00467058  .00008186  00000-0  53145-3 0  9991,2 52554  53.2158  63.9515 0001099  86.8729 273.2388 15.08865210 68525,6917.803,95.436,540.429,538.908,0.0
52554.0,STARLINK-3770,PAYLOAD,2023-08-06 09:39:03,15.08826598,0.0001293,53.2158,62.1689,104.6195,255.4941,-0.00037689,-6.279e-05,0.0,0 STARLINK-3770,1 52554U 22051X   23218.40212259 -.00006279  00000-0 -37689-3 0  9994,2 52554  53.2158  62.1689 0001293 104.6195 255.4941 15.08826598 68589,6917.921,95.438,540.681,538.892,0.0
52554.0,STARLINK-3770,PAYLOAD,2023-08-07 19:02:10,15.08836961,9.6e-05,53.2162,55.9233,110.2232,249.8864,0.00080308,0.00012515,0.0,0 STARLINK-3770,1 52554U 22051X   23219.79317847  .00012515  00000-0  80308-3 0  9990,2 52554  53.2162  55.9233 0000960 110.2232 249.8864 15.08836961 68793,6917.89,95.438,540.419,539.091,0.0
52554.0,STARLINK-3770,PAYLOAD,2023-08-08 22:03:42,15.0887547,8.71e-05,53.2163,50.8672,105.273,254.8359,0.0010808,0.00016971,0.0,0 STARLINK-3770,1 52554U 22051X   23220.91924521  .00016971  00000-0  10808-2 0  9996,2 52554  53.2163  50.8672 0000871 105.2730 254.8359 15.08875470 68965,6917.772,95.435,540.24,539.034,0.0
52554.0,STARLINK-3770,PAYLOAD,2023-08-09 09:11:24,15.0884155,7.92e-05,53.2163,48.7854,97.2764,262.8318,-0.00027754,-4.702e-05,0.0,0 STARLINK-3770,1 52554U 22051X   23221.38292757 -.00004702  00000-0 -27754-3 0  9997,2 52554  53.2163  48.7854 0000792  97.2764 262.8318 15.08841550 69037,6917.876,95.437,540.289,539.193,0.0
52554.0,STARLINK-3770,PAYLOAD,2023-08-10 18:34:30,15.08849864,8.67e-05,53.2163,42.5421,74.9711,285.1377,0.00065744,0.00010194,0.0,0 STARLINK-3770,1 52554U 22051X   23222.77396982  .00010194  00000-0  65744-3 0  9997,2 52554  53.2163  42.5421 0000867  74.9711 285.1377 15.08849864 69248,6917.85,95.437,540.315,539.115,0.0
52554.0,STARLINK-3770,PAYLOAD,2023-08-11 18:25:17,15.0884867,8.25e-05,53.2166,38.0814,79.4426,280.6659,0.00030882,4.632e-05,0.0,0 STARLINK-3770,1 52554U 22051X   23223.76756799  .00004632  00000-0  30882-3 0  9998,2 52554  53.2166  38.0814 0000825  79.4426 280.6659 15.08848670 69397,6917.854,95.437,540.29,539.148,0.0
52554.0,STARLINK-3770,PAYLOAD,2023-08-12 10:19:09,15.08842759,9.63e-05,53.2141,35.1072,89.9743,270.1359,0.00015104,2.117e-05,0.0,0 STARLINK-3770,1 52554U 22051X   23224.42996890  .00002117  00000-0  15104-3 0  9996,2 52554  53.2141  35.1072 0000963  89.9743 270.1359 15.08842759 69499,6917.872,95.437,540.403,539.071,0.0
52554.0,STARLINK-3770,PAYLOAD,2023-08-13 18:06:52,15.08835421,9e-05,53.2166,29.1615,92.0136,268.0959,-1.4398e-05,-5.17e-06,0.0,0 STARLINK-3770,1 52554U 22051X   23225.75477258 -.00000517  00000-0 -14398-4 0  9994,2 52554  53.2166  29.1615 0000900  92.0136 268.0959 15.08835421 69696,6917.894,95.438,540.382,539.137,0.0
52554.0,STARLINK-3770,PAYLOAD,2023-08-14 17:57:39,15.08841266,0.0001165,53.2183,24.7003,109.9491,250.1626,9.9572e-05,1.297e-05,0.0,0 STARLINK-3770,1 52554U 22051X   23226.74837205  .00001297  00000-0  99572-4 0  9997,2 52554  53.2183  24.7003 0001165 109.9491 250.1626 15.08841266 69847,6917.877,95.437,540.547,538.936,0.0
52554.0,STARLINK-3770,PAYLOAD,2023-08-16 09:42:18,15.0883796,0.000146,53.216,17.2663,82.103,278.0128,0.00014193,1.971e-05,0.0,0 STARLINK-3770,1 52554U 22051X   23228.40437865  .00001971  00000-0  14193-3 0  9994,2 52554  53.2160  17.2663 0001460  82.1030 278.0128 15.08837960 70091,6917.887,95.438,540.762,538.742,0.0
52554.0,STARLINK-3770,PAYLOAD,2023-08-17 15:54:37,15.08842752,8.65e-05,53.2182,11.618,67.6047,292.5037,0.0001388,1.922e-05,0.0,0 STARLINK-3770,1 52554U 22051X   23229.66293423  .00001922  00000-0  13880-3 0  9991,2 52554  53.2182  11.6180 0000865  67.6047 292.5037 15.08842752 70287,6917.872,95.437,540.335,539.139,0.0
52554.0,STARLINK-3770,PAYLOAD,2023-08-18 09:23:52,15.08835294,0.0001151,53.2169,8.3454,88.9853,271.1271,8.2201e-05,1.02e-05,0.0,0 STARLINK-3770,1 52554U 22051X   23230.39158034  .00001020  00000-0  82201-4 0  9994,2 52554  53.2169   8.3454 0001151  88.9853 271.1271 15.08835294 70397,6917.895,95.438,540.556,538.964,0.0
52554.0,STARLINK-3770,PAYLOAD,2023-08-19 12:25:25,15.08840447,0.0001104,53.2175,3.2905,91.7269,268.3849,3.4006e-05,2.53e-06,0.0,0 STARLINK-3770,1 52554U 22051X   23231.51765880  .00000253  00000-0  34006-4 0  9999,2 52554  53.2175   3.2905 0001104  91.7269 268.3849 15.08840447 70564,6917.879,95.438,540.508,538.98,0.0
52554.0,STARLINK-3770,PAYLOAD,2023-08-20 15:26:58,15.08842253,0.0001244,53.2181,358.235,111.9935,248.1189,0.00016179,2.288e-05,0.0,0 STARLINK-3770,1 52554U 22051X   23232.64373558  .00002288  00000-0  16179-3 0  9991,2 52554  53.2181 358.2350 0001244 111.9935 248.1189 15.08842253 70737,6917.874,95.437,540.599,538.878,0.0
52554.0,STARLINK-3770,PAYLOAD,2023-08-21 12:07:00,15.08835346,0.0001172,53.219,354.3708,74.7419,285.3703,5.5125e-05,5.89e-06,0.0,0 STARLINK-3770,1 52554U 22051X   23233.50486470  .00000589  00000-0  55125-4 0  9992,2 52554  53.2190 354.3708 0001172  74.7419 285.3703 15.08835346 70868,6917.895,95.438,540.57,538.949,0.0
